1998-067XX              
1 66911U 98067XX  25364.67358095  .00115440  00000+0  16798-2 0  9993
2 66911  51.6319  53.0470 0003181 324.6408  35.4372 15.54865129  4395
1998-067XY              
1 66912U 98067XY  25365.14259225  .00081525  00000+0  12712-2 0  9990
2 66912  51.6324  50.9301 0003812 329.0552  31.0213 15.53128826  4460
2025-284A               
1 66913U 25284A   25364.98360308  .00010057  00000+0  83824-3 0  9993
2 66913  80.4034 107.0491 0016483 221.7329 138.2632 14.98435640  3873
2025-284B               
1 66914U 25284B   25350.28554881  .00008068  00000+0  38445-3 0  9991
2 66914  80.4045 125.2713 0008179 234.9626 125.0834 15.18985981  1668
HULIANWANG DIGUI-105    
1 66915U 25285A   25365.22227608  .00000118  00000+0  18377-3 0  9997
2 66915  50.0114  42.1096 0000235 323.0294  37.0593 13.99095272  3507
HULIANWANG DIGUI-106    
1 66916U 25285B   25364.14778359  .00000112  00000+0  17429-3 0  9993
2 66916  50.0078  46.4180 0002386 333.8091  26.2691 14.01044551  3351
HULIANWANG DIGUI-107    
1 66917U 25285C   25365.14574653 -.00000038  00000+0  76285-4 0  9990
2 66917  50.0032  42.3536 0000687 144.2352 215.8597 13.99193870  3499
HULIANWANG DIGUI-108    
1 66918U 25285D   25365.21580487 -.00000054  00000+0  64526-4 0  9994
2 66918  50.0056  42.0668 0000233 294.9350  65.1529 14.00221722  3501
HULIANWANG DIGUI-109    
1 66919U 25285E   25365.14204111 -.00000025  00000+0  84972-4 0  9999
2 66919  50.0078  42.3477 0000237  95.5522 264.5407 13.99649701  3493
HULIANWANG DIGUI-110    
1 66920U 25285F   25365.21212675 -.00000161  00000+0 -76335-5 0  9990
2 66920  50.0130  42.0641 0000501 194.0959 165.9930 13.99925905  3507
HULIANWANG DIGUI-111    
1 66921U 25285G   25365.21093486 -.00000140  00000+0  70472-5 0  9990
2 66921  50.0243  42.0790 0000883 307.3476  52.7347 14.00142080  3507
HULIANWANG DIGUI-112    
1 66922U 25285H   25365.20939934  .00000090  00000+0  16280-3 0  9995
2 66922  50.0116  42.0504 0000615 354.0116   6.0779 13.99903835  3504
